NORAD_CAT_ID,OBJECT_NAME,OBJECT_TYPE,EPOCH,MEAN_MOTION,ECCENTRICITY,INCLINATION,RA_OF_ASC_NODE,ARG_OF_PERICENTER,MEAN_ANOMALY,BSTAR,MEAN_MOTION_DOT,MEAN_MOTION_DDOT,TLE_LINE0,TLE_LINE1,TLE_LINE2,SEMIMAJOR_AXIS,PERIOD,APOGEE,PERIGEE,DECAYED
53721.0,STARLINK-4707,PAYLOAD,2024-07-26 21:06:23,15.08851007,0.0001565,53.2178,26.2087,98.6322,261.4847,0.00015067,2.111e-05,0.0,0 STARLINK-4707,1 53721U 22107X   24208.87944120  .00002111  00000-0  15067-3 0  9998,2 53721  53.2178  26.2087 0001565  98.6322 261.4847 15.08851007105225,6917.847,95.437,540.794,538.629,0.0
53721.0,STARLINK-4707,PAYLOAD,2024-07-27 05:03:19,15.0883425,7.87e-05,53.2178,24.7216,71.5856,288.5221,-3.6726e-05,-8.72e-06,0.0,0 STARLINK-4707,1 53721U 22107X   24209.21064791 -.00000872  00000-0 -36726-4 0  9994,2 53721  53.2178  24.7216 0000787  71.5856 288.5221 15.08834250105271,6917.898,95.438,540.307,539.219,0.0
53721.0,STARLINK-4707,PAYLOAD,2024-07-27 20:57:12,15.08820714,0.0001515,53.2177,21.7545,54.1008,306.0125,0.00015551,2.187e-05,0.0,0 STARLINK-4707,1 53721U 22107X   24209.87306345  .00002187  00000-0  15551-3 0  9991,2 53721  53.2177  21.7545 0001515  54.1008 306.0125 15.08820714105378,6917.939,95.439,540.852,538.756,0.0
53721.0,STARLINK-4707,PAYLOAD,2024-07-28 04:54:07,15.08835081,3.21e-05,53.2189,20.2633,93.5984,266.5045,6.3135e-05,7.17e-06,0.0,0 STARLINK-4707,1 53721U 22107X   24210.20425429  .00000717  00000-0  63135-4 0  9994,2 53721  53.2189  20.2633 0000321  93.5984 266.5045 15.08835081104965,6917.895,95.438,539.982,539.538,0.0
53721.0,STARLINK-4707,PAYLOAD,2024-07-28 19:12:35,15.08854193,0.000123,53.2184,17.5856,83.0882,277.025,0.00025096,3.71e-05,0.0,0 STARLINK-4707,1 53721U 22107X   24210.80040909  .00003710  00000-0  25096-3 0  9995,2 53721  53.2184  17.5856 0001230  83.0882 277.0250 15.08854193105058,6917.837,95.437,540.553,538.851,0.0
53721.0,STARLINK-4707,PAYLOAD,2024-07-29 04:44:54,15.08847036,0.0001231,53.2183,15.7983,92.0905,268.0228,0.00034893,5.271e-05,0.0,0 STARLINK-4707,1 53721U 22107X   24211.19785226  .00005271  00000-0  34893-3 0  9995,2 53721  53.2183  15.7983 0001231  92.0905 268.0228 15.08847036105115,6917.859,95.437,540.575,538.872,0.0
53721.0,STARLINK-4707,PAYLOAD,2024-07-29 11:06:27,15.08841874,0.0001363,53.2189,14.6103,88.0395,272.0754,0.00031379,4.71e-05,0.0,0 STARLINK-4707,1 53721U 22107X   24211.46281539  .00004710  00000-0  31379-3 0  9996,2 53721  53.2189  14.6103 0001363  88.0395 272.0754 15.08841874105615,6917.875,95.437,540.683,538.797,0.0
53721.0,STARLINK-4707,PAYLOAD,2024-07-29 19:03:22,15.08849548,0.0001243,53.218,13.1233,99.4675,260.6457,0.0002039,2.96e-05,0.0,0 STARLINK-4707,1 53721U 22107X   24211.79400906  .00002960  00000-0  20390-3 0  9999,2 53721  53.2180  13.1233 0001243  99.4675 260.6457 15.08849548105662,6917.851,95.437,540.576,538.856,0.0
53721.0,STARLINK-4707,PAYLOAD,2024-07-30 20:29:33,15.08806536,0.0001151,53.2141,8.3675,120.9153,239.1952,0.00067119,0.000104,0.0,0 STARLINK-4707,1 53721U 22107X   24212.85386304  .00010400  00000-0  67119-3 0  9990,2 53721  53.2141   8.3675 0001151 120.9153 239.1952 15.08806536105362,6917.983,95.44,540.644,539.051,0.0
53721.0,STARLINK-4707,PAYLOAD,2024-07-31 13:58:47,15.08839302,0.0001395,53.2191,5.0929,95.6526,264.4625,1.8442e-05,6e-08,0.0,0 STARLINK-4707,1 53721U 22107X   24213.58249510  .00000006  00000-0  18442-4 0  9995,2 53721  53.2191   5.0929 0001395  95.6526 264.4625 15.08839302105933,6917.883,95.438,540.713,538.782,0.0
53721.0,STARLINK-4707,PAYLOAD,2024-07-31 20:20:19,15.08852298,0.0001125,53.2185,3.9049,88.3356,271.7765,0.00011606,1.56e-05,0.0,0 STARLINK-4707,1 53721U 22107X   24213.84744406  .00001560  00000-0  11606-3 0  9998,2 53721  53.2185   3.9049 0001125  88.3356 271.7765 15.08852298105516,6917.843,95.437,540.486,538.93,0.0
53721.0,STARLINK-4707,PAYLOAD,2024-08-01 02:41:52,15.08844905,0.000118,53.2167,2.7142,81.5794,278.5331,0.00019626,2.837e-05,0.0,0 STARLINK-4707,1 53721U 22107X   24214.11241038  .00002837  00000-0  19626-3 0  9990,2 53721  53.2167   2.7142 0001180  81.5794 278.5331 15.08844905105553,6917.865,95.437,540.547,538.914,0.0
53721.0,STARLINK-4707,PAYLOAD,2024-08-01 20:11:06,15.08844205,0.0001543,53.2188,359.4442,73.1646,286.9515,0.00010135,1.326e-05,0.0,0 STARLINK-4707,1 53721U 22107X   24214.84105010  .00001326  00000-0  10135-3 0  9997,2 53721  53.2188 359.4442 0001543  73.1646 286.9515 15.08844205106121,6917.868,95.437,540.8,538.665,0.0
53721.0,STARLINK-4707,PAYLOAD,2024-08-02 02:32:40,15.08826174,0.000122,53.2191,358.2537,79.2979,280.815,-1.9187e-05,-5.93e-06,0.0,0 STARLINK-4707,1 53721U 22107X   24215.10602510 -.00000593  00000-0 -19187-4 0  9998,2 53721  53.2191 358.2537 0001220  79.2979 280.8150 15.08826174105701,6917.923,95.438,540.632,538.944,0.0
53721.0,STARLINK-4707,PAYLOAD,2024-08-02 13:40:22,15.08829496,0.0001272,53.2189,356.1733,77.6398,282.4736,-8.5847e-05,-1.653e-05,0.0,0 STARLINK-4707,1 53721U 22107X   24215.56970978 -.00001653  00000-0 -85847-4 0  9998,2 53721  53.2189 356.1733 0001272  77.6398 282.4736 15.08829496106234,6917.912,95.438,540.657,538.898,0.0
53721.0,STARLINK-4707,PAYLOAD,2024-08-02 20:01:54,15.08841886,0.00012,53.2189,354.9838,86.6759,273.437,1.681e-05,-2e-07,0.0,0 STARLINK-4707,1 53721U 22107X   24215.83465918 -.00000020  00000-0  16810-4 0  9991,2 53721  53.2189 354.9838 0001200  86.6759 273.4370 15.08841886105812,6917.875,95.437,540.57,538.909,0.0
53721.0,STARLINK-4707,PAYLOAD,2024-08-03 15:06:31,15.08856289,0.0001075,53.2168,351.4152,85.0602,275.0513,8.0715e-05,9.98e-06,0.0,0 STARLINK-4707,1 53721U 22107X   24216.62952957  .00000998  00000-0  80715-4 0  9991,2 53721  53.2168 351.4152 0001075  85.0602 275.0513 15.08856289106394,6917.831,95.437,540.439,538.952,0.0
53721.0,STARLINK-4707,PAYLOAD,2024-08-03 16:41:53,15.08866555,0.0001107,53.2184,351.1201,90.0494,270.0625,0.00015216,2.136e-05,0.0,0 STARLINK-4707,1 53721U 22107X   24216.69576103  .00002136  00000-0  15216-3 0  9992,2 53721  53.2184 351.1201 0001107  90.0494 270.0625 15.08866555105941,6917.799,95.436,540.43,538.898,0.0
53721.0,STARLINK-4707,PAYLOAD,2024-08-04 02:14:13,15.08850906,0.0001385,53.2183,349.3359,73.4163,286.6981,2.425e-05,9.8e-07,0.0,0 STARLINK-4707,1 53721U 22107X   24217.09321280  .00000098  00000-0  24250-4 0  9995,2 53721  53.2183 349.3359 0001385  73.4163 286.6981 15.08850906106008,6917.847,95.437,540.67,538.754,0.0
53721.0,STARLINK-4707,PAYLOAD,2024-08-04 13:21:56,15.08839259,0.0001635,53.2197,347.2525,78.6986,281.419,0.00020218,2.931e-05,0.0,0 STARLINK-4707,1 53721U 22107X   24217.55689896  .00002931  00000-0  20218-3 0  9993,2 53721  53.2197 347.2525 0001635  78.6986 281.4190 15.08839259106073,6917.883,95.438,540.879,538.617,0.0
53721.0,STARLINK-4707,PAYLOAD,2024-08-04 14:57:18,15.08841038,0.0001298,53.2175,346.9519,80.1752,279.9386,0.00023896,3.517e-05,0.0,0 STARLINK-4707,1 53721U 22107X   24217.62313605  .00003517  00000-0  23896-3 0  9999,2 53721  53.2175 346.9519 0001298  80.1752 279.9386 15.08841038106541,6917.877,95.437,540.64,538.844,0.0
53721.0,STARLINK-4707,PAYLOAD,2024-08-04 18:08:04,15.08861153,0.0001414,53.2185,346.3593,81.5312,278.584,0.00036807,5.578e-05,0.0,0 STARLINK-4707,1 53721U 22107X   24217.75560872  .00005578  00000-0  36807-3 0  9998,2 53721  53.2185 346.3593 0001414  81.5312 278.5840 15.08861153106107,6917.816,95.436,540.659,538.703,0.0
53721.0,STARLINK-4707,PAYLOAD,2024-08-05 02:05:00,15.08848625,0.0001621,53.2183,344.8725,89.6109,270.5069,0.00015666,2.207e-05,0.0,0 STARLINK-4707,1 53721U 22107X   24218.08681361  .00002207  00000-0  15666-3 0  9998,2 53721  53.2183 344.8725 0001621  89.6109 270.5069 15.08848625106157,6917.854,95.437,540.84,538.598,0.0
53721.0,STARLINK-4707,PAYLOAD,2024-08-05 14:48:05,15.08851974,0.0001428,53.2184,342.4933,94.4631,265.6524,-3.0254e-05,-7.7e-06,0.0,0 STARLINK-4707,1 53721U 22107X   24218.61672871 -.00000770  00000-0 -30254-4 0  9999,2 53721  53.2184 342.4933 0001428  94.4631 265.6524 15.08851974106693,6917.844,95.437,540.697,538.721,0.0
53721.0,STARLINK-4707,PAYLOAD,2024-08-06 13:03:29,15.08837338,0.0001589,53.2192,338.3308,105.9599,254.1568,9.386e-07,-2.73e-06,0.0,0 STARLINK-4707,1 53721U 22107X   24219.54409599 -.00000273  00000-0  93860-6 0  9998,2 53721  53.2192 338.3308 0001589 105.9599 254.1568 15.08837338106375,6917.889,95.438,540.853,538.654,0.0
53721.0,STARLINK-4707,PAYLOAD,2024-08-06 14:38:53,15.08834648,0.0001234,53.2187,338.0354,92.2616,267.8518,6.2524e-06,-1.88e-06,0.0,0 STARLINK-4707,1 53721U 22107X   24219.61033745 -.00000188  00000-0  62524-5 0  9999,2 53721  53.2187 338.0354 0001234  92.2616 267.8518 15.08834648106841,6917.897,95.438,540.615,538.908,0.0
53721.0,STARLINK-4707,PAYLOAD,2024-08-07 12:54:17,15.0884301,0.0001372,53.2168,333.8706,86.4304,273.6845,0.00018297,2.625e-05,0.0,0 STARLINK-4707,1 53721U 22107X   24220.53769708  .00002625  00000-0  18297-3 0  9990,2 53721  53.2168 333.8706 0001372  86.4304 273.6845 15.08843010106982,6917.871,95.437,540.685,538.787,0.0
53721.0,STARLINK-4707,PAYLOAD,2024-08-08 12:45:03,15.08850113,0.0001367,53.2177,329.4149,91.9293,268.1856,0.00040579,6.178e-05,0.0,0 STARLINK-4707,1 53721U 22107X   24221.53129509  .00006178  00000-0  40579-3 0  9995,2 53721  53.2177 329.4149 0001367  91.9293 268.1856 15.08850113107137,6917.849,95.437,540.66,538.769,0.0
53721.0,STARLINK-4707,PAYLOAD,2024-08-09 12:35:51,15.08842587,0.0001508,53.2173,324.956,113.951,246.1641,6.0779e-05,6.8e-06,0.0,0 STARLINK-4707,1 53721U 22107X   24222.52489675  .00000680  00000-0  60779-4 0  9995,2 53721  53.2173 324.9560 0001508 113.9510 246.1641 15.08842587106823,6917.872,95.437,540.781,538.694,0.0
53721.0,STARLINK-4707,PAYLOAD,2024-08-09 14:11:14,15.08846039,0.0001456,53.2174,324.6597,113.1507,246.9639,0.00014297,1.989e-05,0.0,0 STARLINK-4707,1 53721U 22107X   24222.59113635  .00001989  00000-0  14297-3 0  9998,2 53721  53.2174 324.6597 0001456 113.1507 246.9639 15.08846039107294,6917.862,95.437,540.734,538.72,0.0
